[{"OBJECT_NAME":"UTMN 2 (RS27S)","OBJECT_ID":"2023-091AP","EPOCH":"2026-03-09T23:09:07.917408","MEAN_MOTION":15.29495965,"ECCENTRICITY":0.00097379,"INCLINATION":97.5194,"RA_OF_ASC_NODE":134.949,"ARG_OF_PERICENTER":76.0788,"MEAN_ANOMALY":284.1534,"EPHEMERIS_TYPE":0,"CLASSIFICATION_TYPE":"U","NORAD_CAT_ID":57203,"ELEMENT_SET_NO":999,"REV_AT_EPOCH":14936,"BSTAR":0.00056135701,"MEAN_MOTION_DOT":0.00016013,"MEAN_MOTION_DDOT":0},{"OBJECT_NAME":"STARLINK-31637","OBJECT_ID":"2024-050E","EPOCH":"2026-03-09T13:50:31.422912","MEAN_MOTION":15.30201127,"ECCENTRICITY":0.0001201,"INCLINATION":53.1598,"RA_OF_ASC_NODE":181.3492,"ARG_OF_PERICENTER":111.3619,"MEAN_ANOMALY":248.751,"EPHEMERIS_TYPE":0,"CLASSIFICATION_TYPE":"U","NORAD_CAT_ID":59258,"ELEMENT_SET_NO":999,"REV_AT_EPOCH":11053,"BSTAR":-6.4335e-5,"MEAN_MOTION_DOT":-2.264e-5,"MEAN_MOTION_DDOT":0}]
